[{"OBJECT_NAME":"FLOCK 4BE-35","OBJECT_ID":"2024-149CU","EPOCH":"2026-03-04T10:56:29.709024","MEAN_MOTION":15.42530285,"ECCENTRICITY":0.00045373,"INCLINATION":97.38,"RA_OF_ASC_NODE":146.632,"ARG_OF_PERICENTER":276.0787,"MEAN_ANOMALY":83.9944,"EPHEMERIS_TYPE":0,"CLASSIFICATION_TYPE":"U","NORAD_CAT_ID":60558,"ELEMENT_SET_NO":999,"REV_AT_EPOCH":8619,"BSTAR":0.0031293325,"MEAN_MOTION_DOT":0.0013797,"MEAN_MOTION_DDOT":0},{"OBJECT_NAME":"FLOCK 4BE-5","OBJECT_ID":"2024-149CV","EPOCH":"2026-03-04T10:52:40.538208","MEAN_MOTION":15.36758194,"ECCENTRICITY":0.00025184,"INCLINATION":97.3889,"RA_OF_ASC_NODE":146.6906,"ARG_OF_PERICENTER":317.6119,"MEAN_ANOMALY":42.493,"EPHEMERIS_TYPE":0,"CLASSIFICATION_TYPE":"U","NORAD_CAT_ID":60559,"ELEMENT_SET_NO":999,"REV_AT_EPOCH":8617,"BSTAR":0.00089644416,"MEAN_MOTION_DOT":0.00032212,"MEAN_MOTION_DDOT":0},{"OBJECT_NAME":"FLOCK 4BE-12","OBJECT_ID":"2024-149CW","EPOCH":"2026-03-04T05:29:29.037984","MEAN_MOTION":15.4535469,"ECCENTRICITY":0.00056807,"INCLINATION":97.3773,"RA_OF_ASC_NODE":147.1069,"ARG_OF_PERICENTER":279.8944,"MEAN_ANOMALY":80.1663,"EPHEMERIS_TYPE":0,"CLASSIFICATION_TYPE":"U","NORAD_CAT_ID":60560,"ELEMENT_SET_NO":999,"REV_AT_EPOCH":8622,"BSTAR":0.0030835154,"MEAN_MOTION_DOT":0.00149762,"MEAN_MOTION_DDOT":0},{"OBJECT_NAME":"FLOCK 4BE-3","OBJECT_ID":"2024-149CX","EPOCH":"2026-03-04T15:43:24.005280","MEAN_MOTION":15.3797271,"ECCENTRICITY":0.0003126,"INCLINATION":97.3752,"RA_OF_ASC_NODE":146.8173,"ARG_OF_PERICENTER":303.2102,"MEAN_ANOMALY":56.8843,"EPHEMERIS_TYPE":0,"CLASSIFICATION_TYPE":"U","NORAD_CAT_ID":60561,"ELEMENT_SET_NO":999,"REV_AT_EPOCH":8625,"BSTAR":0.00063539,"MEAN_MOTION_DOT":0.00023695,"MEAN_MOTION_DDOT":0},{"OBJECT_NAME":"FLOCK 4BE-19","OBJECT_ID":"2024-149CZ","EPOCH":"2026-03-04T19:10:17.304096","MEAN_MOTION":15.40086911,"ECCENTRICITY":0.0003197,"INCLINATION":97.3792,"RA_OF_ASC_NODE":148.0483,"ARG_OF_PERICENTER":308.4065,"MEAN_ANOMALY":51.6893,"EPHEMERIS_TYPE":0,"CLASSIFICATION_TYPE":"U","NORAD_CAT_ID":60563,"ELEMENT_SET_NO":999,"REV_AT_EPOCH":8633,"BSTAR":0.00065315,"MEAN_MOTION_DOT":0.00026109,"MEAN_MOTION_DDOT":0},{"OBJECT_NAME":"PELICAN-2","OBJECT_ID":"2025-009Y","EPOCH":"2026-03-04T04:53:50.110944","MEAN_MOTION":15.40310721,"ECCENTRICITY":0.00067489,"INCLINATION":97.4036,"RA_OF_ASC_NODE":153.4417,"ARG_OF_PERICENTER":221.664,"MEAN_ANOMALY":138.4092,"EPHEMERIS_TYPE":0,"CLASSIFICATION_TYPE":"U","NORAD_CAT_ID":62631,"ELEMENT_SET_NO":999,"REV_AT_EPOCH":6339,"BSTAR":0.0017565261,"MEAN_MOTION_DOT":0.00071333,"MEAN_MOTION_DDOT":0},{"OBJECT_NAME":"PELICAN-3","OBJECT_ID":"2025-188A","EPOCH":"2026-03-04T16:10:34.087296","MEAN_MOTION":15.40657683,"ECCENTRICITY":0.0002789,"INCLINATION":97.225,"RA_OF_ASC_NODE":141.2804,"ARG_OF_PERICENTER":207.1167,"MEAN_ANOMALY":152.9935,"EPHEMERIS_TYPE":0,"CLASSIFICATION_TYPE":"U","NORAD_CAT_ID":65315,"ELEMENT_SET_NO":999,"REV_AT_EPOCH":2922,"BSTAR":0.0012332,"MEAN_MOTION_DOT":0.00050463,"MEAN_MOTION_DDOT":0},{"OBJECT_NAME":"PELICAN-4","OBJECT_ID":"2025-188B","EPOCH":"2026-03-04T04:04:50.121984","MEAN_MOTION":15.40623414,"ECCENTRICITY":0.00046344,"INCLINATION":97.2337,"RA_OF_ASC_NODE":140.8795,"ARG_OF_PERICENTER":102.6575,"MEAN_ANOMALY":257.519,"EPHEMERIS_TYPE":0,"CLASSIFICATION_TYPE":"U","NORAD_CAT_ID":65316,"ELEMENT_SET_NO":999,"REV_AT_EPOCH":2914,"BSTAR":0.00037427894,"MEAN_MOTION_DOT":0.00015176,"MEAN_MOTION_DDOT":0}]
